[{"name": "BEIDOU-2 IGSO-1 (C06)", "line1": "1 36828U 10036A   26186.86412824 -.00000067  00000+0  00000+0 0  9997", "line2": "2 36828  54.3059 162.7913 0059246 225.2427 314.2732  1.00266921 58286"}, {"name": "BEIDOU-2 G4 (C04)", "line1": "1 37210U 10057A   26186.82224894 -.00000100  00000+0  00000+0 0  9998", "line2": "2 37210   3.6902  68.8356 0005005 186.8970 124.0603  1.00271148 57473"}, {"name": "BEIDOU-2 IGSO-2 (C07)", "line1": "1 37256U 10068A   26186.79737208 -.00000199  00000+0  00000+0 0  9992", "line2": "2 37256  47.5137 271.6019 0056554 213.6076 193.9198  1.00277005 56988"}, {"name": "BEIDOU-2 IGSO-3 (C08)", "line1": "1 37384U 11013A   26186.90683212 -.00000168  00000+0  00000+0 0  9999", "line2": "2 37384  62.4329  39.9760 0035271 183.2471 134.1057  1.00263196 55842"}, {"name": "BEIDOU-2 IGSO-4 (C09)", "line1": "1 37763U 11038A   26186.90061580  .00000043  00000+0  00000+0 0  9996", "line2": "2 37763  54.6039 165.5068 0160024 231.4226 305.2552  1.00281860 54837"}, {"name": "BEIDOU-2 IGSO-5 (C10)", "line1": "1 37948U 11073A   26183.72937883 -.00000128  00000+0  00000+0 0  9990", "line2": "2 37948  47.6496 271.3544 0114527 222.0502 141.5350  1.00270596 53296"}, {"name": "BEIDOU-2 G5 (C05)", "line1": "1 38091U 12008A   26186.87350200  .00000070  00000+0  00000+0 0  9995", "line2": "2 38091   3.6175  69.5848 0007502 274.4343 313.0539  1.00268416 52555"}, {"name": "BEIDOU-2 M3 (C11)", "line1": "1 38250U 12018A   26185.90831992 -.00000060  00000+0  00000+0 0  9998", "line2": "2 38250  55.7414 304.2782 0020630 272.9261  86.8584  1.86230251 96273"}, {"name": "BEIDOU-2 M4 (C12)", "line1": "1 38251U 12018B   26182.08192837 -.00000069  00000+0  00000+0 0  9992", "line2": "2 38251  55.6447 303.6195 0011579 274.1308  85.7452  1.86229794 96203"}, {"name": "BEIDOU-2 M6 (C14)", "line1": "1 38775U 12050B   26186.08726959 -.00000037  00000+0  00000+0 0  9996", "line2": "2 38775  56.5596  62.3027 0013196   0.0067   0.0613  1.86230975 93644"}, {"name": "BEIDOU-2 G6 (C02)", "line1": "1 38953U 12059A   26186.81786682 -.00000163  00000+0  00000+0 0  9993", "line2": "2 38953   4.4658  73.3269 0009241 330.2880 258.6203  1.00269598 50097"}, {"name": "BEIDOU-3S IGSO-1S (C31)", "line1": "1 40549U 15019A   26183.80025122 -.00000190  00000+0  00000+0 0  9997", "line2": "2 40549  49.1798 295.2769 0076860 219.1125 144.2493  1.00680073 41232"}, {"name": "BEIDOU-3S M2S (C58)", "line1": "1 40748U 15037A   26186.57966338 -.00000059  00000+0  00000+0 0  9992", "line2": "2 40748  54.8530 301.4135 0009147 257.7204 102.2021  1.86232493 74462"}, {"name": "BEIDOU-3S M1S (C57)", "line1": "1 40749U 15037B   26185.17416965 -.00000058  00000+0  00000+0 0  9993", "line2": "2 40749  54.8513 301.4491 0002995  63.1742 296.8797  1.86254939 74446"}, {"name": "BEIDOU-3S IGSO-2S (C56)", "line1": "1 40938U 15053A   26186.69846175 -.00000108  00000+0  00000+0 0  9995", "line2": "2 40938  49.1930 258.5625 0065791 192.9102 177.7258  1.00255372 39540"}, {"name": "BEIDOU-2 IGSO-6 (C13)", "line1": "1 41434U 16021A   26177.11016981 -.00000145  00000+0  00000+0 0  9995", "line2": "2 41434  60.2385  37.9495 0057558 231.0163 137.2672  1.00258926 37578"}, {"name": "BEIDOU-2 G7 (C03)", "line1": "1 41586U 16037A   26186.81245554 -.00000340  00000+0  00000+0 0  9994", "line2": "2 41586   1.7632  69.4558 0006621   5.3232 252.0088  1.00267536  7071"}, {"name": "BEIDOU-3 M1 (C19)", "line1": "1 43001U 17069A   26184.24174458 -.00000036  00000+0  00000+0 0  9995", "line2": "2 43001  56.7055  62.5561 0009680 326.7179  33.2911  1.86231596 58903"}, {"name": "BEIDOU-3 M2 (C20)", "line1": "1 43002U 17069B   26186.32835574 -.00000037  00000+0  00000+0 0  9991", "line2": "2 43002  56.7067  62.5232 0008599 354.4335   5.6244  1.86231044 58935"}, {"name": "BEIDOU-3 M7 (C27)", "line1": "1 43107U 18003A   26186.60719869 -.00000060  00000+0  00000+0 0  9991", "line2": "2 43107  54.3105 301.6729 0004494  97.1448 262.9309  1.86228521 57690"}, {"name": "BEIDOU-3 M8 (C28)", "line1": "1 43108U 18003B   26185.47778759 -.00000059  00000+0  00000+0 0  9997", "line2": "2 43108  54.3039 301.6942 0002946 257.9178 102.0730  1.86231098 57684"}, {"name": "BEIDOU-3 M4 (C22)", "line1": "1 43207U 18018A   26186.45786024 -.00000038  00000+0  00000+0 0  9993", "line2": "2 43207  56.6662  62.5471 0007485  26.4736 333.6318  1.86232772 57081"}, {"name": "BEIDOU-3 M3 (C21)", "line1": "1 43208U 18018B   26185.98738978 -.00000037  00000+0  00000+0 0  9995", "line2": "2 43208  56.6656  62.5664 0007917 344.1639  15.8794  1.86231281 57071"}, {"name": "BEIDOU-3 M9 (C29)", "line1": "1 43245U 18029A   26186.20531919 -.00000058  00000+0  00000+0 0  9993", "line2": "2 43245  54.1766 299.3193 0001025 178.1170 181.9112  1.86228509 56238"}, {"name": "BEIDOU-3 M10 (C30)", "line1": "1 43246U 18029B   26186.13958437 -.00000057  00000+0  00000+0 0  9993", "line2": "2 43246  54.1743 299.3476 0003288  34.7931 325.2560  1.86229590 56212"}, {"name": "BEIDOU-2 IGSO-7 (C16)", "line1": "1 43539U 18057A   26182.89122331 -.00000033  00000+0  00000+0 0  9998", "line2": "2 43539  55.1981 162.9292 0104946 237.8611 308.6338  1.00246939 29273"}, {"name": "BEIDOU-3 M5 (C23)", "line1": "1 43581U 18062A   26186.36353622  .00000102  00000+0  00000+0 0  9992", "line2": "2 43581  54.0864 181.6860 0005685 290.7318  69.2090  1.86228842 53975"}, {"name": "BEIDOU-3 M6 (C24)", "line1": "1 43582U 18062B   26185.69013536  .00000095  00000+0  00000+0 0  9996", "line2": "2 43582  54.0862 181.6984 0005134   9.5945 350.4158  1.86227898 53961"}, {"name": "BEIDOU-3 M12 (C26)", "line1": "1 43602U 18067A   26186.16551804  .00000100  00000+0  00000+0 0  9999", "line2": "2 43602  54.1815 180.4305 0007887  30.0033 330.0410  1.86227846 53453"}, {"name": "BEIDOU-3 M11 (C25)", "line1": "1 43603U 18067B   26186.30063315  .00000102  00000+0  00000+0 0  9993", "line2": "2 43603  54.1789 180.3895 0004608  13.2303 346.7812  1.86227307 53483"}, {"name": "BEIDOU-3 M13 (C32)", "line1": "1 43622U 18072A   26186.25540581 -.00000038  00000+0  00000+0 0  9998", "line2": "2 43622  56.6401  62.0636 0006506 332.1156  27.9172  1.86231609 52991"}, {"name": "BEIDOU-3 M14 (C33)", "line1": "1 43623U 18072B   26186.12084875 -.00000037  00000+0  00000+0 0  9993", "line2": "2 43623  56.6413  62.0624 0005525  10.1889 349.8902  1.86231326 52980"}, {"name": "BEIDOU-3 M16 (C35)", "line1": "1 43647U 18078A   26186.27591436 -.00000058  00000+0  00000+0 0  9990", "line2": "2 43647  54.0723 299.3519 0006797  40.3103 319.7676  1.86232297 52494"}, {"name": "BEIDOU-3 M15 (C34)", "line1": "1 43648U 18078B   26186.40518660 -.00000058  00000+0  00000+0 0  9994", "line2": "2 43648  54.0678 299.3477 0003902  59.0227 301.0433  1.86232465 52511"}, {"name": "BEIDOU-3 G1 (C59)", "line1": "1 43683U 18085A   26186.82224894 -.00000096  00000+0  00000+0 0  9992", "line2": "2 43683   2.9129  96.8835 0008589 353.4391 289.4199  1.00273857 28247"}, {"name": "BEIDOU-3 M17 (C36)", "line1": "1 43706U 18093A   26185.22286402  .00000091  00000+0  00000+0 0  9997", "line2": "2 43706  54.1701 181.7185 0010151 293.0453 245.7693  1.86228469 51856"}, {"name": "BEIDOU-3 M18 (C37)", "line1": "1 43707U 18093B   26186.43047008  .00000103  00000+0  00000+0 0  9993", "line2": "2 43707  54.1708 181.6695 0008087 321.5987  38.3455  1.86226766 51875"}, {"name": "BEIDOU-3 IGSO-1 (C38)", "line1": "1 44204U 19023A   26183.86157338 -.00000197  00000+0  00000+0 0  9996", "line2": "2 44204  58.7163  37.4891 0025641 224.0382  88.2901  1.00287534  7361"}, {"name": "BEIDOU-2 G8 (C01)", "line1": "1 44231U 19027A   26186.89048876 -.00000233  00000+0  00000+0 0  9993", "line2": "2 44231   1.7027  74.5152 0010056 285.5796  28.8303  1.00275582 26261"}, {"name": "BEIDOU-3 IGSO-2 (C39)", "line1": "1 44337U 19035A   26186.77092939 -.00000081  00000+0  00000+0 0  9996", "line2": "2 44337  55.2501 158.6995 0039707 216.5029 305.1091  1.00260937 25852"}, {"name": "BEIDOU-3 M24 (C46)", "line1": "1 44542U 19061A   26184.88799988  .00000088  00000+0  00000+0 0  9997", "line2": "2 44542  54.3971 182.1643 0008565 358.8529   1.1460  1.86229350 46108"}, {"name": "BEIDOU-3 M23 (C45)", "line1": "1 44543U 19061B   26185.82154656  .00000097  00000+0  00000+0 0  9990", "line2": "2 44543  54.3962 182.1016 0005863 338.9372 198.4419  1.86227694 46121"}, {"name": "BEIDOU-3 M22 (C44)", "line1": "1 44793U 19078A   26186.33900275 -.00000058  00000+0  00000+0 0  9996", "line2": "2 44793  53.9186 299.1896 0005914  49.8831 310.1966  1.86227646 44980"}, {"name": "BEIDOU-3 M21 (C43)", "line1": "1 44794U 19078B   26186.47887781 -.00000058  00000+0  00000+0 0  9998", "line2": "2 44794  53.8912 299.1453 0003864  48.4464 311.6147  1.86228113 44993"}, {"name": "BEIDOU-3 M19 (C41)", "line1": "1 44864U 19090A   26186.44468992 -.00000038  00000+0  00000+0 0  9994", "line2": "2 44864  56.5742  62.1879 0017143 297.2857 237.3269  1.86231783 44577"}, {"name": "BEIDOU-3 M20 (C42)", "line1": "1 44865U 19090B   26186.91754366 -.00000039  00000+0  00000+0 0  9991", "line2": "2 44865  56.5761  62.2071 0015032 311.9992 269.2229  1.86231646 44560"}, {"name": "BEIDOU-3 G2 (C60)", "line1": "1 45344U 20017A   26186.88913326 -.00000128  00000+0  00000+0 0  9993", "line2": "2 45344   2.8996  47.6022 0002514  49.9960 226.4552  1.00271035 23444"}, {"name": "BEIDOU-3 G3 (C61)", "line1": "1 45807U 20040A   26186.81245554 -.00000341  00000+0  00000+0 0  9994", "line2": "2 45807   2.4902  67.4778 0002270 334.7721 284.5898  1.00269722 22254"}, {"name": "BEIDOU-3 G4 (C62)", "line1": "1 56564U 23066A   26186.88953542 -.00000268  00000+0  00000+0 0  9995", "line2": "2 56564   0.4682 336.1601 0005065 178.6149 229.3126  1.00267201 11589"}, {"name": "BEIDOU-3 M28 (C50)", "line1": "1 58654U 23207A   26186.01893222 -.00000039  00000+0  00000+0 0  9993", "line2": "2 58654  55.7683  61.7017 0002706 358.4998   1.5667  1.86229766 17175"}, {"name": "BEIDOU-3 M26 (C48)", "line1": "1 58655U 23207B   26186.35338463 -.00000040  00000+0  00000+0 0  9994", "line2": "2 58655  55.7709  61.6769 0002358 323.5408  36.5098  1.86229736 17162"}, {"name": "BEIDOU-3 M25 (C47)", "line1": "1 61186U 24168B   26186.73220918 -.00000060  00000+0  00000+0 0  9993", "line2": "2 61186  54.4561 301.5989 0003274 293.8207  77.6374  1.86230136 12132"}, {"name": "BEIDOU-3 M27 (C49)", "line1": "1 61187U 24168C   26185.97724236 -.00000059  00000+0  00000+0 0  9999", "line2": "2 61187  54.4521 301.6079 0001099  47.0603 313.2643  1.86230248  9590"}]